[{"OBJECT_NAME":"KINEIS-1D","OBJECT_ID":"2024-114D","EPOCH":"2026-03-10T00:18:20.784384","MEAN_MOTION":14.76114357,"ECCENTRICITY":0.00024808,"INCLINATION":97.9968,"RA_OF_ASC_NODE":90.2039,"ARG_OF_PERICENTER":123.4456,"MEAN_ANOMALY":236.6991,"EPHEMERIS_TYPE":0,"CLASSIFICATION_TYPE":"U","NORAD_CAT_ID":60082,"ELEMENT_SET_NO":999,"REV_AT_EPOCH":9249,"BSTAR":0.00015372971,"MEAN_MOTION_DOT":1.01e-5,"MEAN_MOTION_DDOT":0},{"OBJECT_NAME":"CZ-6A DEB","OBJECT_ID":"2024-140AH","EPOCH":"2026-03-09T14:46:31.007424","MEAN_MOTION":14.5221627,"ECCENTRICITY":0.0105392,"INCLINATION":89.0408,"RA_OF_ASC_NODE":285.702,"ARG_OF_PERICENTER":256.8465,"MEAN_ANOMALY":102.0967,"EPHEMERIS_TYPE":0,"CLASSIFICATION_TYPE":"U","NORAD_CAT_ID":60632,"ELEMENT_SET_NO":999,"REV_AT_EPOCH":8389,"BSTAR":0.00033936,"MEAN_MOTION_DOT":1.496e-5,"MEAN_MOTION_DDOT":0}]
